satname,norad_id,inclination_deg,eccentricity,mean_motion_rev_per_day,perigee_km,apogee_km,l1,l2
STARLINK-1554,46055,53.1592,0.0001131,15.31692047,469.9890921378992,471.5383134768754,1 46055U 20055AE  26151.06307208 -.00000120  00000+0  78975-5 0  9997,2 46055  53.1592  90.8868 0001131  85.1308 274.9822 15.31692047321690
STARLINK-1564,46058,53.159,0.0001505,15.30194689,474.1994952808391,476.26235902691224,1 46058U 20055AH  26151.82865876 -.00002002  00000+0 -55486-4 0  9997,2 46058  53.1590  88.1947 0001505 101.7137 258.4032 15.30194689321798
STARLINK-1570,46059,53.1597,9.63e-05,15.31708466,470.05521421206504,471.3743030607784,1 46059U 20055AJ  26151.80878183  .00005520  00000+0  18946-3 0  9996,2 46059  53.1597  87.2948 0000963 107.8441 252.2665 15.31708466321765
STARLINK-1572,46060,53.1598,0.0001257,15.30196961,474.36267584483994,476.085610836275,1 46060U 20055AK  26151.80966454 -.00000707  00000+0 -11753-4 0  9991,2 46060  53.1598  88.0283 0001257  92.7228 267.3916 15.30196961321767
STARLINK-1573,46061,53.1605,0.000123,15.31678653,469.96121056337597,471.6460499584209,1 46061U 20055AL  26151.14229206  .00000990  00000+0  43684-4 0  9996,2 46061  53.1605  90.3666 0001230  98.4911 261.6230 15.31678653321705
STARLINK-1577,46063,53.1621,0.0001005,15.31695849,470.06405578699105,471.44068255019374,1 46063U 20055AN  26151.10499630 -.00000910  00000+0 -17561-4 0  9993,2 46063  53.1621  90.5384 0001005  67.2186 292.8921 15.31695849321699
STARLINK-1583,46064,53.1607,0.0001148,15.3170609,469.9355923177127,471.50809030767687,1 46064U 20055AP  26151.91668980 -.00005028  00000+0 -15034-3 0  9996,2 46064  53.1607  87.2572 0001148 101.7496 339.1326 15.31706090  5865
STARLINK-1536,46070,53.162,0.0001903,15.3169923,469.4389488275483,472.04563228553434,1 46070U 20055AV  26151.05508796  .00001851  00000+0  71415-4 0  9990,2 46070  53.1620  78.6592 0001903  68.7531 291.3674 15.31699230321856
STARLINK-1542,46073,53.1638,9.67e-05,15.31693971,470.0956792765246,471.4202555632237,1 46073U 20055AY  26151.07945265  .00001599  00000+0  63299-4 0  9991,2 46073  53.1638  81.5121 0000967  86.6232 273.4880 15.31693971321806
STARLINK-1549,46074,53.0491,0.0003982,15.28649926,477.1163721452367,482.57807077921007,1 46074U 20055AZ  26151.09072963  .00016214  00000+0  58537-3 0  9998,2 46074  53.0491  78.5643 0003982  86.9246 273.2208 15.28649926321838
STARLINK-1551,46075,53.1599,0.0001332,15.30206782,474.2819558661995,476.10768346295845,1 46075U 20055BA  26151.81961348  .00004402  00000+0  16062-3 0  9996,2 46075  53.1599  74.9321 0001332 104.2876 255.8273 15.30206782321966
STARLINK-1552,46076,53.1603,0.0001063,15.31706577,469.9923560605257,471.4484231415545,1 46076U 20055BB  26151.81506029  .00010438  00000+0  34759-3 0  9997,2 46076  53.1603  74.6360 0001063  73.3808 286.7310 15.31706577321957
STARLINK-1559,46077,53.0241,0.0002276,15.3753732,451.8394669539812,454.9491800124315,1 46077U 20055BC  26151.71086951  .00062732  00000+0  16751-2 0  9999,2 46077  53.0241  45.0406 0002276  78.1721 281.9537 15.37537320322326
STARLINK-1566,46079,53.16,0.0001032,15.31706392,470.0141389330038,471.4277432120416,1 46079U 20055BE  26151.81969785  .00004999  00000+0  17272-3 0  9998,2 46079  53.1600  74.4673 0001032  95.4907 264.6212 15.31706392321976
STARLINK-1568,46080,53.059,0.0003664,15.53463922,404.13556196673926,409.1074329936937,1 46080U 20055BF  26151.54611205  .00055473  00000+0  86078-3 0  9994,2 46080  53.0590 355.5117 0003664  64.1548 295.9839 15.53463922323043
STARLINK-1578,46082,53.1594,0.0001484,15.31698211,469.7289540092488,471.76170228424326,1 46082U 20055BH  26151.82409339  .00001299  00000+0  53625-4 0  9990,2 46082  53.1594  74.9656 0001484  87.9664 272.1508 15.31698211321966
STARLINK-1579,46083,53.1599,8.73e-05,15.31708,470.1182428659313,471.31405262552653,1 46083U 20055BJ  26151.81038574  .00010647  00000+0  35428-3 0  9996,2 46083  53.1599  74.5684 0000873  71.2593 288.8503 15.31708000321964
STARLINK-1622,46128,53.0138,0.0007412,15.82091197,319.55974980996507,329.495780057503,1 46128U 20057M   26151.91668980  .00185946  00000+0  87329-3 0  9991,2 46128  53.0138 170.9795 0007412  31.5234  63.2260 15.82091197  6001
STARLINK-1623,46129,53.0423,0.0005932,15.73164894,345.86721750407287,353.8493110856316,1 46129U 20057N   26151.91668980  .00116483  00000+0  82333-3 0  9992,2 46129  53.0423 208.6770 0005932   8.1128 158.4049 15.73164894  5868
STARLINK-1596,46141,53.0347,0.0007025,15.58224914,388.03779463270985,397.5509532130727,1 46141U 20057AA  26151.91668980  .00134295  00000+0  17210-2 0  9998,2 46141  53.0347 190.4102 0007025   7.6467  39.0248 15.58224914  5889
STARLINK-1597,46142,53.0423,0.0003785,15.72956072,347.9069415668182,353.00048473667357,1 46142U 20057AB  26151.91668980  .00019723  00000+0  14607-3 0  9995,2 46142  53.0423 248.4125 0003785  13.9879 289.5009 15.72956072  5970
STARLINK-1606,46144,53.0362,0.0008245,15.87432118,303.97128445751787,314.99917351311433,1 46144U 20057AD  26151.91668980  .00287034  00000+0  10301-2 0  9995,2 46144  53.0362 202.2013 0008245 353.1410  26.4097 15.87432118  5896
STARLINK-1608,46146,53.1604,0.0003039,15.35233643,458.14842010137727,462.3047774967272,1 46146U 20057AF  26151.75802646  .00063061  00000+0  18131-2 0  9999,2 46146  53.1604 282.4093 0003039 315.6882  44.3877 15.35233643318918
STARLINK-1667,46155,53.0112,0.0008428,15.86754385,305.7514344605697,317.02730010526284,1 46155U 20057AQ  26151.91668980  .00322400  00000+0  11909-2 0  9999,2 46155  53.0112 170.4419 0008428  34.4157 311.1429 15.86754385  5746
STARLINK-1545,46156,53.0381,0.000676,15.80715331,323.8829358182347,332.9501962395052,1 46156U 20057AR  26151.91668980  .00165436  00000+0  83063-3 0  9995,2 46156  53.0381 206.4102 0006760 338.8430 134.7836 15.80715331  5840
STARLINK-1595,46159,53.0433,0.0004077,15.70934679,353.47886568918057,358.9700640276269,1 46159U 20057AU  26151.91668980  .00060839  00000+0  47816-3 0  9995,2 46159  53.0433 251.0582 0004077   1.5780 174.7897 15.70934679  5972
STARLINK-1598,46160,53.0441,8.75e-05,15.7081092,355.988891355074,357.1674665113869,1 46160U 20057AV  26151.91668980 -.00025675  00000+0 -19830-3 0  9993,2 46160  53.0441 237.2055 0000875 191.3818 134.4029 15.70810920  5978
STARLINK-1626,46167,53.0412,0.0003137,15.70895738,354.2231525397556,358.448360747273,1 46167U 20057BC  26151.91668980 -.00004338  00000+0 -29347-4 0  9998,2 46167  53.0412 246.7119 0003137 355.3010   8.6090 15.70895738  5924
